$$SOE
2461295.500000000, A.D. 2026-Sep-12 00:00:00.0000, 2.663990973468033E+08, 2.513159978838254E+08, 4.741563717592748E+07,
2461302.500000000, A.D. 2026-Sep-19 00:00:00.0000, 2.581672585720579E+08, 2.599223605781858E+08, 4.481092626447615E+07,
2461309.500000000, A.D. 2026-Sep-26 00:00:00.0000, 2.496861476256136E+08, 2.682777485642218E+08, 4.216294861755122E+07,
2461316.500000000, A.D. 2026-Oct-03 00:00:00.0000, 2.409636200728441E+08, 2.763737386996619E+08, 3.947420513783026E+07,
2461323.500000000, A.D. 2026-Oct-10 00:00:00.0000, 2.320078757787614E+08, 2.842022373808112E+08, 3.674725755373873E+07,
2461330.500000000, A.D. 2026-Oct-17 00:00:00.0000, 2.228274426964638E+08, 2.917554988210062E+08, 3.398472322477722E+07,
2461337.500000000, A.D. 2026-Oct-24 00:00:00.0000, 2.134311594608713E+08, 2.990261421192051E+08, 3.118926972973979E+07,
2461344.500000000, A.D. 2026-Oct-31 00:00:00.0000, 2.038281569765933E+08, 3.060071669582686E+08, 2.836360925128470E+07,
2461351.500000000, A.D. 2026-Nov-07 00:00:00.0000, 1.940278394385369E+08, 3.126919679208275E+08, 2.551049276070346E+07,
2461358.500000000, A.D. 2026-Nov-14 00:00:00.0000, 1.840398650938492E+08, 3.190743482304240E+08, 2.263270408609955E+07,
2461365.500000000, A.D. 2026-Nov-21 00:00:00.0000, 1.738741250427648E+08, 3.251485335229765E+08, 1.973305411484829E+07,
2461372.500000000, A.D. 2026-Nov-28 00:00:00.0000, 1.635407191841824E+08, 3.309091825772842E+08, 1.681437500758965E+07,
2461379.500000000, A.D. 2026-Dec-05 00:00:00.0000, 1.530499330387996E+08, 3.363513943126748E+08, 1.387951407300846E+07,
2461386.500000000, A.D. 2026-Dec-12 00:00:00.0000, 1.424122157392015E+08, 3.414707141409149E+08, 1.093132757667786E+07,
2461393.500000000, A.D. 2026-Dec-19 00:00:00.0000, 1.316381574244764E+08, 3.462631396641259E+08, 7.972674690756127E+06,
2461400.500000000, A.D. 2026-Dec-26 00:00:00.0000, 1.207384660235977E+08, 3.507251248493513E+08, 5.006411558646023E+06,
2461407.500000000, A.D. 2027-Jan-02 00:00:00.0000, 1.097239438302250E+08, 3.548535824982138E+08, 2.035385463754624E+06,
2461414.500000000, A.D. 2027-Jan-09 00:00:00.0000, 9.860546410960642E+07, 3.586458850507551E+08, -9.375708786414564E+05,
2461421.500000000, A.D. 2027-Jan-16 00:00:00.0000, 8.739394789177194E+07, 3.620998637609689E+08, -3.909644882686079E+06,
2461428.500000000, A.D. 2027-Jan-23 00:00:00.0000, 7.610034110999450E+07, 3.652138062429470E+08, -6.878049489409983E+06,
2461435.500000000, A.D. 2027-Jan-30 00:00:00.0000, 6.473559237862918E+07, 3.679864523882358E+08, -9.840028398967147E+06,
2461442.500000000, A.D. 2027-Feb-06 00:00:00.0000, 5.331063193444574E+07, 3.704169890530440E+08, -1.279286112842029E+07,
2461449.500000000, A.D. 2027-Feb-13 00:00:00.0000, 4.183635137488985E+07, 3.725050448034474E+08, -1.573386773547119E+07,
2461456.500000000, A.D. 2027-Feb-20 00:00:00.0000, 3.032358191752457E+07, 3.742506839983754E+08, -1.866041304054661E+07,
2461463.500000000, A.D. 2027-Feb-27 00:00:00.0000, 1.878307265063981E+07, 3.756543970701030E+08, -2.156991072337238E+07,
2461470.500000000, A.D. 2027-Mar-06 00:00:00.0000, 7.225471858515305E+06, 3.767170890148783E+08, -2.445982740263627E+07,
2461477.500000000, A.D. 2027-Mar-13 00:00:00.0000, -4.338690115250376E+06, 3.774400682360666E+08, -2.732768637694597E+07,
2461484.500000000, A.D. 2027-Mar-20 00:00:00.0000, -1.589901754283461E+07, 3.778250349947532E+08, -3.017107098559193E+07,
2461491.500000000, A.D. 2027-Mar-27 00:00:00.0000, -2.744526528167964E+07, 3.778740690114436E+08, -3.298762764843887E+07,
2461498.500000000, A.D. 2027-Apr-03 00:00:00.0000, -3.896735380210232E+07, 3.775896162659299E+08, -3.577506860578518E+07,
2461505.500000000, A.D. 2027-Apr-10 00:00:00.0000, -5.045538318682291E+07, 3.769744751133773E+08, -3.853117436243512E+07,
2461512.500000000, A.D. 2027-Apr-17 00:00:00.0000, -6.189964606372414E+07, 3.760317817963027E+08, -4.125379584166731E+07,
2461519.500000000, A.D. 2027-Apr-24 00:00:00.0000, -7.329063938411042E+07, 3.747649953824089E+08, -4.394085626572806E+07,
2461526.500000000, A.D. 2027-May-01 00:00:00.0000, -8.461907474620730E+07, 3.731778822457094E+08, -4.659035279398051E+07,
2461533.500000000, A.D. 2027-May-08 00:00:00.0000, -9.587588696368387E+07, 3.712745009266534E+08, -4.920035789338970E+07,
2461540.500000000, A.D. 2027-May-15 00:00:00.0000, -1.070522423892659E+08, 3.690591884104524E+08, -5.176902023590781E+07,
2461547.500000000, A.D. 2027-May-22 00:00:00.0000, -1.181395485729050E+08, 3.665365453107979E+08, -5.429456520133008E+07,
2461554.500000000, A.D. 2027-May-29 00:00:00.0000, -1.291294619226427E+08, 3.637114185594734E+08, -5.677529542248628E+07,
2461561.500000000, A.D. 2027-Jun-05 00:00:00.0000, -1.400138925170013E+08, 3.605888848049147E+08, -5.920959121019870E+07,
2461568.500000000, A.D. 2027-Jun-12 00:00:00.0000, -1.507850081095045E+08, 3.571742350203853E+08, -6.159591065258898E+07,
2461575.500000000, A.D. 2027-Jun-19 00:00:00.0000, -1.614352376917813E+08, 3.534729594459590E+08, -6.393278944776116E+07,
2461582.500000000, A.D. 2027-Jun-26 00:00:00.0000, -1.719572743759577E+08, 3.494907326564715E+08, -6.621884052998239E+07,
2461589.500000000, A.D. 2027-Jul-03 00:00:00.0000, -1.823440775072421E+08, 3.452333988129474E+08, -6.845275351453343E+07,
2461596.500000000, A.D. 2027-Jul-10 00:00:00.0000, -1.925888740145916E+08, 3.407069571507753E+08, -7.063329397796917E+07,
2461603.500000000, A.D. 2027-Jul-17 00:00:00.0000, -2.026851590086508E+08, 3.359175477053947E+08, -7.275930259441414E+07,
2461610.500000000, A.D. 2027-Jul-24 00:00:00.0000, -2.126266955160330E+08, 3.308714372470655E+08, -7.482969416113231E+07,
2461617.500000000, A.D. 2027-Jul-31 00:00:00.0000, -2.224075129835618E+08, 3.255750056887849E+08, -7.684345654472654E+07,
2461624.500000000, A.D. 2027-Aug-07 00:00:00.0000, -2.320219047987170E+08, 3.200347341418308E+08, -7.879964944739875E+07,
2461631.500000000, A.D. 2027-Aug-14 00:00:00.0000, -2.414644271739910E+08, 3.142571943844944E+08, -8.069740281484076E+07,
2461638.500000000, A.D. 2027-Aug-21 00:00:00.0000, -2.507298988216678E+08, 3.082490363938325E+08, -8.253591522831562E+07,
2461645.500000000, A.D. 2027-Aug-28 00:00:00.0000, -2.598133980340704E+08, 3.020169751506990E+08, -8.431445250702891E+07,
2461652.500000000, A.D. 2027-Sep-04 00:00:00.0000, -2.687102584007118E+08, 2.955677792289518E+08, -8.603234622100562E+07,
2461659.500000000, A.D. 2027-Sep-11 00:00:00.0000, -2.774160646032197E+08, 2.889082605175964E+08, -8.768899205468047E+07,
2461666.500000000, A.D. 2027-Sep-18 00:00:00.0000, -2.859266481947720E+08, 2.820452644304878E+08, -8.928384809818321E+07,
2461673.500000000, A.D. 2027-Sep-25 00:00:00.0000, -2.942380831730316E+08, 2.749856605257507E+08, -9.081643310347265E+07,
2461680.500000000, A.D. 2027-Oct-02 00:00:00.0000, -3.023466813080903E+08, 2.677363335589584E+08, -9.228632471879701E+07,
2461687.500000000, A.D. 2027-Oct-09 00:00:00.0000, -3.102489872380810E+08, 2.603041749595967E+08, -9.369315771206093E+07,
2461694.500000000, A.D. 2027-Oct-16 00:00:00.0000, -3.179417733027456E+08, 2.526960746679591E+08, -9.503662220092779E+07,
2461701.500000000, A.D. 2027-Oct-23 00:00:00.0000, -3.254220338866673E+08, 2.449189133170610E+08, -9.631646192089902E+07,
2461708.500000000, A.D. 2027-Oct-30 00:00:00.0000, -3.326869789272180E+08, 2.369795553584889E+08, -9.753247252218276E+07,
2461715.500000000, A.D. 2027-Nov-06 00:00:00.0000, -3.397340277793798E+08, 2.288848442476639E+08, -9.868449970259698E+07,
2461722.500000000, A.D. 2027-Nov-13 00:00:00.0000, -3.465608054504856E+08, 2.206415976001408E+08, -9.977243717059736E+07,
2461729.500000000, A.D. 2027-Nov-20 00:00:00.0000, -3.531651383258857E+08, 2.122566001205486E+08, -1.007962248880703E+08,
2461736.500000000, A.D. 2027-Nov-27 00:00:00.0000, -3.595450477877437E+08, 2.037365972518592E+08, -1.017558475014850E+08,
2461743.500000000, A.D. 2027-Dec-04 00:00:00.0000, -3.656987437723789E+08, 1.950882904416057E+08, -1.026513327049610E+08,
2461750.500000000, A.D. 2027-Dec-11 00:00:00.0000, -3.716246188371738E+08, 1.863183330461289E+08, -1.034827495680288E+08,
2461757.500000000, A.D. 2027-Dec-18 00:00:00.0000, -3.773212424790218E+08, 1.774333265185267E+08, -1.042502068841443E+08,
2461764.500000000, A.D. 2027-Dec-25 00:00:00.0000, -3.827873555673417E+08, 1.684398168618965E+08, -1.049538515563270E+08,
2461771.500000000, A.D. 2028-Jan-01 00:00:00.0000, -3.880218648640217E+08, 1.593442913459330E+08, -1.055938670244576E+08,
$$EOE